[{"OBJECT_NAME":"NUSHSAT1","OBJECT_ID":"2025-052B","EPOCH":"2026-03-09T15:31:41.225952","MEAN_MOTION":15.31903202,"ECCENTRICITY":0.0005501,"INCLINATION":97.4095,"RA_OF_ASC_NODE":325.7239,"ARG_OF_PERICENTER":84.7512,"MEAN_ANOMALY":275.4357,"EPHEMERIS_TYPE":0,"CLASSIFICATION_TYPE":"U","NORAD_CAT_ID":63211,"ELEMENT_SET_NO":999,"REV_AT_EPOCH":5488,"BSTAR":0.00074857,"MEAN_MOTION_DOT":0.00023034,"MEAN_MOTION_DDOT":0},{"OBJECT_NAME":"STARLINK-34553","OBJECT_ID":"2025-139T","EPOCH":"2026-03-09T15:52:18.489504","MEAN_MOTION":15.3019701,"ECCENTRICITY":0.00013324,"INCLINATION":53.158,"RA_OF_ASC_NODE":126.8904,"ARG_OF_PERICENTER":73.3241,"MEAN_ANOMALY":286.7905,"EPHEMERIS_TYPE":0,"CLASSIFICATION_TYPE":"U","NORAD_CAT_ID":64681,"ELEMENT_SET_NO":999,"REV_AT_EPOCH":4028,"BSTAR":0.0010760246,"MEAN_MOTION_DOT":0.00031642,"MEAN_MOTION_DDOT":0}]
